OBJECT_NAME,OBJECT_ID,EPOCH,MEAN_MOTION,ECCENTRICITY,INCLINATION,RA_OF_ASC_NODE,ARG_OF_PERICENTER,MEAN_ANOMALY,EPHEMERIS_TYPE,CLASSIFICATION_TYPE,NORAD_CAT_ID,ELEMENT_SET_NO,REV_AT_EPOCH,BSTAR,MEAN_MOTION_DOT,MEAN_MOTION_DDOT
ONEWEB-0236,2021-045AG,2026-07-20T09:54:34.149600,13.15548614,.00020864,87.8975,252.5853,93.6126,266.5243,0,U,48797,999,24862,-.15008573E-3,-.44E-6,0
ONEWEB-0248,2021-045AH,2026-07-20T04:44:14.651520,13.15549136,.00024343,87.8988,252.6154,103.8288,256.3113,0,U,48798,999,24875,.14114954E-4,.18E-6,0
ONEWEB-0225,2021-045AJ,2026-07-20T03:26:40.872768,13.15548992,.00023051,87.8986,252.6328,110.4711,249.6667,0,U,48799,999,24875,.39564169E-3,.162E-5,0
ONEWEB-0215,2021-045AK,2026-07-20T04:32:49.841664,13.15549452,.00025066,87.8986,252.6079,110.8379,249.3020,0,U,48800,999,24863,-.4033184E-4,-.2E-7,0
ONEWEB-0216,2021-045AL,2026-07-20T04:46:32.428416,13.15547995,.00019358,87.8985,252.6199,96.8612,263.2739,0,U,48801,999,24864,-.90371049E-4,-.21E-6,0
ONEWEB-0239,2021-045AM,2026-07-20T04:53:23.320896,13.15548559,.00027709,87.8976,252.6225,107.9220,252.2213,0,U,48802,999,24868,.43880032E-3,.178E-5,0
ONEWEB-0249,2021-060A,2026-07-20T19:05:33.886176,13.16591990,.0002171,87.9076,222.1019,94.0819,266.0560,0,U,48967,999,24403,.12163E-3,.59E-6,0
ONEWEB-0250,2021-060B,2026-07-20T01:27:09.004896,13.25835494,.00030185,87.9079,219.8970,81.1956,278.9522,0,U,48968,999,24457,.16808896E-4,.21E-6,0
ONEWEB-0252,2021-060D,2026-07-20T03:25:06.722688,13.16595817,.00018809,87.9078,222.2239,96.5150,263.6195,0,U,48970,999,24399,.86554634E-4,.46E-6,0
ONEWEB-0253,2021-060E,2026-07-20T01:19:43.188672,13.16595723,.00021702,87.9075,222.2462,90.9399,269.1980,0,U,48971,999,24391,.60681457E-4,.36E-6,0
ONEWEB-0254,2021-060F,2026-07-20T10:40:35.571360,13.16594261,.00023315,87.9082,222.1674,97.2595,262.8801,0,U,48972,999,24396,-.10754962E-3,-.28E-6,0
ONEWEB-0255,2021-060G,2026-07-20T02:28:07.845312,13.16594098,.00021932,87.9076,222.2416,96.6960,263.4421,0,U,48973,999,24399,-.75384385E-4,-.16E-6,0
ONEWEB-0256,2021-060H,2026-07-20T19:30:40.667616,13.16595088,.0001911,87.9072,222.1029,94.2239,265.9111,0,U,48974,999,24405,.29918E-3,.127E-5,0
ONEWEB-0257,2021-060J,2026-07-20T02:03:03.097728,13.16593904,.00020641,87.9077,222.2359,97.1146,263.0220,0,U,48975,999,24391,-.10967558E-3,-.29E-6,0
ONEWEB-0258,2021-060K,2026-07-20T11:12:28.797408,13.16603482,.0002263,87.9080,222.1725,93.3111,266.8279,0,U,48976,999,24397,-.54116162E-2,-.2056E-4,0
ONEWEB-0259,2021-060L,2026-07-20T01:56:12.688224,13.16594464,.00022633,87.9076,222.2478,93.9063,266.2327,0,U,48977,999,24395,-.20771029E-3,-.67E-6,0
ONEWEB-0260,2021-060M,2026-07-20T01:43:38.574336,13.16593543,.0001679,87.9074,222.2496,94.8413,265.2910,0,U,48978,999,24393,.14467574E-3,.68E-6,0
ONEWEB-0261,2021-060N,2026-07-20T10:07:32.439072,13.16593915,.0002112,87.9073,222.1813,101.9652,258.1716,0,U,48979,999,24403,.15215E-3,.71E-6,0
ONEWEB-0262,2021-060P,2026-07-20T18:46:12.701280,13.16593617,.0002363,87.9079,222.0966,92.9575,267.1826,0,U,48980,999,24404,-.2264E-3,-.74E-6,0
ONEWEB-0263,2021-060Q,2026-07-20T19:31:48.474336,13.16594111,.0002265,87.9078,222.1021,100.7251,259.4135,0,U,48981,999,24401,.13516E-3,.65E-6,0
ONEWEB-0264,2021-060R,2026-07-20T18:35:56.349600,13.16592858,.0001997,87.9074,222.1114,97.9805,262.1552,0,U,48982,999,24401,-.19807E-3,-.63E-6,0
ONEWEB-0266,2021-060T,2026-07-20T19:06:42.182784,13.16595374,.0002082,87.9076,222.0990,90.4345,269.7025,0,U,48984,999,24400,.74308E-4,.41E-6,0
ONEWEB-0267,2021-060U,2026-07-20T02:57:46.123200,13.16594437,.00020751,87.9079,222.2297,98.9500,261.1866,0,U,48985,999,24392,.19297622E-3,.87E-6,0
ONEWEB-0268,2021-060V,2026-07-20T07:40:27.294240,13.16593794,.00019353,87.9077,222.1998,92.1078,268.0275,0,U,48986,999,24421,-.12855482E-3,-.36E-6,0
ONEWEB-0269,2021-060W,2026-07-20T01:44:48.555744,13.16594917,.00019214,87.9075,222.2489,88.8442,271.2909,0,U,48987,999,24395,.22270295E-3,.98E-6,0
ONEWEB-0270,2021-060X,2026-07-20T18:34:47.271936,13.16592676,.0002386,87.9078,222.1117,97.7321,262.4081,0,U,48988,999,24408,-.1645E-3,-.5E-6,0
ONEWEB-0271,2021-060Y,2026-07-20T10:58:49.845504,13.16594406,.00021824,87.9076,222.1635,98.8069,261.3309,0,U,48989,999,24404,-.1204741E-3,-.33E-6,0
ONEWEB-0272,2021-060Z,2026-07-20T18:48:28.355328,13.16595513,.0001855,87.9071,222.1095,98.7696,261.3645,0,U,48990,999,24403,-.19437E-3,-.61E-6,0
ONEWEB-0273,2021-060AA,2026-07-20T10:13:12.063648,13.16598442,.000209,87.9071,222.1812,96.3466,263.7903,0,U,48991,999,24396,-.25904E-2,-.977E-5,0
ONEWEB-0274,2021-060AB,2026-07-20T01:42:30.212064,13.16596227,.0001769,87.9071,222.2512,96.2930,263.8403,0,U,48992,999,24395,.13197855E-3,.63E-6,0
