ONEWEB-0236             
1 48797U 21045AG  26201.41289525 -.00000044  00000+0 -15009-3 0  9991
2 48797  87.8975 252.5853 0002086  93.6126 266.5243 13.15548614248622
ONEWEB-0248             
1 48798U 21045AH  26201.19739180  .00000018  00000+0  14115-4 0  9991
2 48798  87.8988 252.6154 0002434 103.8288 256.3113 13.15549136248759
ONEWEB-0225             
1 48799U 21045AJ  26201.14352862  .00000162  00000+0  39564-3 0  9999
2 48799  87.8986 252.6328 0002305 110.4711 249.6667 13.15548992248751
ONEWEB-0215             
1 48800U 21045AK  26201.18946576 -.00000002  00000+0 -40332-4 0  9998
2 48800  87.8986 252.6079 0002506 110.8379 249.3020 13.15549452248633
ONEWEB-0216             
1 48801U 21045AL  26201.19898644 -.00000021  00000+0 -90371-4 0  9991
2 48801  87.8985 252.6199 0001935  96.8612 263.2739 13.15547995248647
ONEWEB-0239             
1 48802U 21045AM  26201.20374214  .00000178  00000+0  43880-3 0  9999
2 48802  87.8976 252.6225 0002770 107.9220 252.2213 13.15548559248681
ONEWEB-0249             
1 48967U 21060A   26201.79553109  .00000059  00000+0  12163-3 0  9992
2 48967  87.9076 222.1019 0002171  94.0819 266.0560 13.16591990244034
ONEWEB-0250             
1 48968U 21060B   26201.06052089  .00000021  00000+0  16809-4 0  9995
2 48968  87.9079 219.8970 0003018  81.1956 278.9522 13.25835494244576
ONEWEB-0252             
1 48970U 21060D   26201.14243892  .00000046  00000+0  86555-4 0  9993
2 48970  87.9078 222.2239 0001880  96.5150 263.6195 13.16595817243999
ONEWEB-0253             
1 48971U 21060E   26201.05536098  .00000036  00000+0  60681-4 0  9998
2 48971  87.9075 222.2462 0002170  90.9399 269.1980 13.16595723243912
ONEWEB-0254             
1 48972U 21060F   26201.44485615 -.00000028  00000+0 -10755-3 0  9999
2 48972  87.9082 222.1674 0002331  97.2595 262.8801 13.16594261243965
ONEWEB-0255             
1 48973U 21060G   26201.10286858 -.00000016  00000+0 -75384-4 0  9998
2 48973  87.9076 222.2416 0002193  96.6960 263.4421 13.16594098243995
ONEWEB-0256             
1 48974U 21060H   26201.81297069  .00000127  00000+0  29918-3 0  9995
2 48974  87.9072 222.1029 0001911  94.2239 265.9111 13.16595088244052
ONEWEB-0257             
1 48975U 21060J   26201.08545252 -.00000029  00000+0 -10968-3 0  9993
2 48975  87.9077 222.2359 0002064  97.1146 263.0220 13.16593904243913
ONEWEB-0258             
1 48976U 21060K   26201.46699997 -.00002056  00000+0 -54116-2 0  9996
2 48976  87.9080 222.1725 0002263  93.3111 266.8279 13.16603482243979
ONEWEB-0259             
1 48977U 21060L   26201.08070241 -.00000067  00000+0 -20771-3 0  9991
2 48977  87.9076 222.2478 0002263  93.9063 266.2327 13.16594464243958
ONEWEB-0260             
1 48978U 21060M   26201.07197424  .00000068  00000+0  14468-3 0  9999
2 48978  87.9074 222.2496 0001679  94.8413 265.2910 13.16593543243938
ONEWEB-0261             
1 48979U 21060N   26201.42190323  .00000071  00000+0  15215-3 0  9995
2 48979  87.9073 222.1813 0002112 101.9652 258.1716 13.16593915244038
ONEWEB-0262             
1 48980U 21060P   26201.78209145 -.00000074  00000+0 -22640-3 0  9994
2 48980  87.9079 222.0966 0002363  92.9575 267.1826 13.16593617244047
ONEWEB-0263             
1 48981U 21060Q   26201.81375549  .00000065  00000+0  13516-3 0  9991
2 48981  87.9078 222.1021 0002265 100.7251 259.4135 13.16594111244014
ONEWEB-0264             
1 48982U 21060R   26201.77495775 -.00000063  00000+0 -19807-3 0  9990
2 48982  87.9074 222.1114 0001997  97.9805 262.1552 13.16592858244017
ONEWEB-0266             
1 48984U 21060T   26201.79632156  .00000041  00000+0  74308-4 0  9992
2 48984  87.9076 222.0990 0002082  90.4345 269.7025 13.16595374244008
ONEWEB-0267             
1 48985U 21060U   26201.12345050  .00000087  00000+0  19298-3 0  9990
2 48985  87.9079 222.2297 0002075  98.9500 261.1866 13.16594437243920
ONEWEB-0268             
1 48986U 21060V   26201.31976035 -.00000036  00000+0 -12855-3 0  9993
2 48986  87.9077 222.1998 0001935  92.1078 268.0275 13.16593794244214
ONEWEB-0269             
1 48987U 21060W   26201.07278421  .00000098  00000+0  22270-3 0  9999
2 48987  87.9075 222.2489 0001921  88.8442 271.2909 13.16594917243959
ONEWEB-0270             
1 48988U 21060X   26201.77415824 -.00000050  00000+0 -16450-3 0  9990
2 48988  87.9078 222.1117 0002386  97.7321 262.4081 13.16592676244089
ONEWEB-0271             
1 48989U 21060Y   26201.45752136 -.00000033  00000+0 -12047-3 0  9995
2 48989  87.9076 222.1635 0002182  98.8069 261.3309 13.16594406244048
ONEWEB-0272             
1 48990U 21060Z   26201.78366152 -.00000061  00000+0 -19437-3 0  9993
2 48990  87.9071 222.1095 0001855  98.7696 261.3645 13.16595513244038
ONEWEB-0273             
1 48991U 21060AA  26201.42583407 -.00000977  00000+0 -25904-2 0  9990
2 48991  87.9071 222.1812 0002090  96.3466 263.7903 13.16598442243965
ONEWEB-0274             
1 48992U 21060AB  26201.07118301  .00000063  00000+0  13198-3 0  9996
2 48992  87.9071 222.2512 0001769  96.2930 263.8403 13.16596227243955
